[
  {
    "name": "FENGYUN 3B",
    "tle1": "1 37214U 10059A   26159.25719324  .00000203  00000-0  12817-3 0  9995",
    "tle2": "2 37214  98.9620 205.2337 0021434 209.8671 238.7933 14.14840525806162",
    "norad_id": "37214"
  },
  {
    "name": "TISAT 1",
    "tle1": "1 36799U 10035E   26159.10083922  .00022207  00000-0  73458-3 0  9994",
    "tle2": "2 36799  98.0701 104.8459 0000138 151.1351 208.9896 15.31365756866319",
    "norad_id": "36799"
  },
  {
    "name": "NOAA 19",
    "tle1": "1 33591U 09005A   26159.20177100  .00000040  00000-0  44857-4 0  9992",
    "tle2": "2 33591  98.9520 230.0699 0014643  58.6010 301.6592 14.13472969893218",
    "norad_id": "33591"
  },
  {
    "name": "O/OREOS (USA 219)",
    "tle1": "1 37224U 10062C   26159.22211144  .00002414  00000-0  23355-3 0  9999",
    "tle2": "2 37224  71.9703 100.6454 0012377  82.7455 277.5122 14.93705882115301",
    "norad_id": "37224"
  },
  {
    "name": "CARTOSAT 2B",
    "tle1": "1 36795U 10035A   26159.27189226  .00000532  00000-0  79684-4 0  9997",
    "tle2": "2 36795  97.9953 209.8782 0010435 214.4613 145.5922 14.78650095858536",
    "norad_id": "36795"
  },
  {
    "name": "XIWANG-1 (HOPE-1)",
    "tle1": "1 36122U 09072B   26159.27598472  .00000053  00000-0  25512-3 0  9995",
    "tle2": "2 36122 100.4028 113.2507 0006779 254.2940 105.7425 13.16439914791838",
    "norad_id": "36122"
  },
  {
    "name": "ITUPSAT-1",
    "tle1": "1 35935U 09051E   26158.98819542  .00000873  00000-0  19037-3 0  9999",
    "tle2": "2 35935  98.4056  65.5723 0006075 268.4530  91.5974 14.60427678887398",
    "norad_id": "35935"
  },
  {
    "name": "BEESAT",
    "tle1": "1 35933U 09051C   26159.27915543  .00000867  00000-0  18388-3 0  9999",
    "tle2": "2 35933  98.3972  66.6661 0003902 252.4599 107.6175 14.61706375887880",
    "norad_id": "35933"
  },
  {
    "name": "SWISSCUBE",
    "tle1": "1 35932U 09051B   26159.00067640  .00001155  00000-0  23775-3 0  9992",
    "tle2": "2 35932  98.4042  66.7288 0005475 236.3791 123.6888 14.62465103887810",
    "norad_id": "35932"
  },
  {
    "name": "KKS-1 (KISEKI)",
    "tle1": "1 33499U 09002H   26159.14859989  .00001427  00000-0  18199-3 0  9990",
    "tle2": "2 33499  98.1193  81.4478 0007085 329.6951  30.3851 14.83101077934859",
    "norad_id": "33499"
  },
  {
    "name": "SRMSAT",
    "tle1": "1 37841U 11058D   26159.20087963  .00000378  00000-0  61376-4 0  9991",
    "tle2": "2 37841  19.9708 113.8594 0011953 105.3030 101.4235 14.11573773756543",
    "norad_id": "37841"
  },
  {
    "name": "JUGNU",
    "tle1": "1 37839U 11058B   26159.24405093  .00000426  00000-0  83200-4 0  9994",
    "tle2": "2 37839  19.9622   2.7589 0018523 337.7505 350.9134 14.13774450757753",
    "norad_id": "37839"
  },
  {
    "name": "METEOR-M",
    "tle1": "1 35865U 09049A   26159.14658022  .00000091  00000-0  59667-4 0  9997",
    "tle2": "2 35865  98.7381 121.6855 0002108   6.4793 353.6412 14.23154889867968",
    "norad_id": "35865"
  },
  {
    "name": "STARS (KUKAI)",
    "tle1": "1 33498U 09002G   26158.78630927  .00004405  00000-0  40124-3 0  9999",
    "tle2": "2 33498  98.1539 105.7115 0008082 190.7801 169.3247 14.95684019937073",
    "norad_id": "33498"
  },
  {
    "name": "PROBA 2",
    "tle1": "1 36037U 09059B   26159.09331555  .00000218  00000-0  61254-4 0  9999",
    "tle2": "2 36037  98.2451 342.5724 0012264 312.9339  47.0828 14.54858700880201",
    "norad_id": "36037"
  },
  {
    "name": "DMC 2",
    "tle1": "1 35683U 09041C   26159.27745256  .00001064  00000-0  16174-3 0  9993",
    "tle2": "2 35683  97.8830 294.4623 0001321  73.7459 286.3896 14.76017402905259",
    "norad_id": "35683"
  },
  {
    "name": "AISSAT 1",
    "tle1": "1 36797U 10035C   26158.65402624  .00002956  00000-0  25998-3 0  9990",
    "tle2": "2 36797  98.0920  57.5614 0010345  90.1898 270.0508 14.97318190862795",
    "norad_id": "36797"
  },
  {
    "name": "YOUTHSAT",
    "tle1": "1 37388U 11015B   26159.16292687  .00000215  00000-0  10792-3 0  9991",
    "tle2": "2 37388  98.3678 133.6242 0014796  13.5709 357.3160 14.25626731786356",
    "norad_id": "37388"
  },
  {
    "name": "COSMOS 2463",
    "tle1": "1 36519U 10017A   26159.21785515  .00000054  00000-0  42399-4 0  9990",
    "tle2": "2 36519  82.9608 256.2952 0036884 153.1021 268.0219 13.71665185806704",
    "norad_id": "36519"
  },
  {
    "name": "ELEKTRO-L",
    "tle1": "1 37344U 11001A   26159.25137615 -.00000049  00000-0  00000-0 0  9991",
    "tle2": "2 37344   9.6649  54.5950 0004268  30.3483 154.4157  1.00155974 56398",
    "norad_id": "37344"
  },
  {
    "name": "APRIZESAT 6",
    "tle1": "1 37793U 11044F   26159.21678542  .00000752  00000-0  11316-3 0  9996",
    "tle2": "2 37793  98.2371  69.5330 0044346 113.9029  16.1249 14.76902899795822",
    "norad_id": "37793"
  },
  {
    "name": "RESOURCESAT 2",
    "tle1": "1 37387U 11015A   26159.22079397  .00000077  00000-0  55138-4 0  9998",
    "tle2": "2 37387  98.7644 226.7242 0010139 284.4978  75.5074 14.21604588784904",
    "norad_id": "37387"
  },
  {
    "name": "DMSP 5D-3 F18 (USA 210)",
    "tle1": "1 35951U 09057A   26159.23084762  .00000248  00000-0  15144-3 0  9991",
    "tle2": "2 35951  98.9034 140.0196 0009877 278.1340  81.8712 14.14891748858325",
    "norad_id": "35951"
  },
  {
    "name": "YAOGAN 10",
    "tle1": "1 36834U 10038A   26159.32340573  .00001944  00000-0  23245-3 0  9993",
    "tle2": "2 36834  97.8983 182.7989 0001707  87.5773 329.7570 14.85324180855890",
    "norad_id": "36834"
  },
  {
    "name": "OCEANSAT 2",
    "tle1": "1 35931U 09051A   26159.26382595  .00000108  00000-0  99714-4 0  9992",
    "tle2": "2 35931  98.2330 147.0054 0014636 263.3655  96.5846 13.99664011878088",
    "norad_id": "35931"
  },
  {
    "name": "YAOGAN 7",
    "tle1": "1 36110U 09069A   26159.22013236  .00000523  00000-0  79455-4 0  9991",
    "tle2": "2 36110  98.0083  45.1422 0025963  69.3638 291.0353 14.78000881888306",
    "norad_id": "36110"
  },
  {
    "name": "SKYMED 4",
    "tle1": "1 37216U 10060A   26159.26229506  .00000380  00000-0  54265-4 0  9998",
    "tle2": "2 37216  97.8890 342.9915 0001416  83.5225 276.6150 14.82161539843240",
    "norad_id": "37216"
  },
  {
    "name": "CHUANG XIN 1-02(CX-1-02)",
    "tle1": "1 33434U 08056B   26159.27234703  .00000004  00000-0  18640-4 0  9994",
    "tle2": "2 33434  98.6138 185.6280 0014442 161.7073 198.4631 14.30151033917341",
    "norad_id": "33434"
  },
  {
    "name": "SHIJIAN 6 04B (SJ-6 04B)",
    "tle1": "1 37180U 10051B   26159.28016221  .00001070  00000-0  92622-4 0  9994",
    "tle2": "2 37180  97.8685 164.5999 0009270 342.1721  17.9175 14.99294614854348",
    "norad_id": "37180"
  },
  {
    "name": "RADUGA 1M-2",
    "tle1": "1 36358U 10002A   26159.19932646 -.00000190  00000-0  00000-0 0  9992",
    "tle2": "2 36358   3.5967  78.9696 0005850 267.4553 332.8614  0.98969669 49936",
    "norad_id": "36358"
  }
]